SL-3 R/B                
1 19046U 88032B   26069.25923697  .00006519  00000+0  30424-3 0  9993
2 19046  97.5196  52.5081 0024464 229.3517 130.5591 15.19918694 52193
SL-16 R/B               
1 19120U 88039B   26069.26215693 -.00000044  00000+0  20088-5 0  9999
2 19120  71.0134  67.3368 0022822 333.5129  26.4828 14.19615424958465
COSMOS 1953             
1 19210U 88050A   26069.28027608  .00009858  00000+0  35306-3 0  9999
2 19210  82.5103 157.6532 0012476 120.5410 239.7063 15.28540132 37872
SL-8 R/B                
1 19257U 88053B   26069.28469216  .00000290  00000+0  10238-3 0  9996
2 19257  74.0459 111.3696 0021441 290.5618 143.3460 14.38916161976682
COSMOS 1975             
1 19573U 88093A   26069.11771985  .00007305  00000+0  26510-3 0  9996
2 19573  82.5180 117.2554 0012136 162.0670 198.1000 15.28077885 19472
SL-14 R/B               
1 19574U 88093B   26068.99958683  .00000761  00000+0  84679-4 0  9994
2 19574  82.5306  41.7526 0021744  40.5230  23.6778 14.85656984  1065
SL-16 R/B               
1 19650U 88102B   26069.25810493  .00000307  00000+0  17925-3 0  9991
2 19650  71.0001 150.3016 0013990   0.7941 359.3201 14.16152424926977
INTERCOSMOS 24          
1 20261U 89080A   26069.12025863  .00000859  00000+0  25594-3 0  9995
2 20261  82.6026 104.1239 1186689 291.8200  56.0884 12.59558521666853
SL-14 R/B               
1 20262U 89080C   26069.27600925  .00000714  00000+0  21035-3 0  9996
2 20262  82.5975 172.8100 1230594 183.4098 175.7992 12.50494571660220
DELTA 1 R/B             
1 20323U 89089B   26069.10366902  .00000405  00000+0  10851-3 0  9990
2 20323  97.0705 276.4765 0070497 120.6902 240.1268 14.50663290895791
ARIANE 40 R/B           
1 20443U 90005H   26069.16098644  .00000328  00000+0  11796-3 0  9997
2 20443  98.3083 129.8085 0009884 197.1358 162.9498 14.39870850892870
DELTA 2 R/B(1)          
1 20453U 90008B   26069.27284104  .00074086  00000+0  86259-3 0  9999
2 20453  35.6036 171.0267 0085222 264.1247  94.9769 15.56077469926223
